H1 CPF 01  gfz 2021 05 14 00  6341 terrasarx 
H2 0702601  6201 31698    2021 05 14 00 59 42 2021 05 19 00 00 42   120 1 1  0 0 0
H9
10 0 59351  25902.000000  0   -6542246.537   2125195.517    375431.708
10 0 59351  26022.000000  0   -6380900.017   2259238.191   1273397.550
10 0 59351  26142.000000  0   -6106022.174   2349964.017   2148938.304
10 0 59351  26262.000000  0   -5723195.328   2393843.855   2986632.542
10 0 59351  26382.000000  0   -5239961.787   2388289.748   3771731.061
10 0 59351  26502.000000  0   -4665668.001   2331731.701   4490422.478
10 0 59351  26622.000000  0   -4011275.034   2223672.818   5130077.989
10 0 59351  26742.000000  0   -3289141.364   2064721.644   5679472.357
10 0 59351  26862.000000  0   -2512781.937   1856601.619   6128978.783
10 0 59351  26982.000000  0   -1696607.576   1602136.365   6470733.040
10 0 59351  27102.000000  0    -855652.182   1305211.462   6698764.508
10 0 59351  27222.000000  0      -5293.883    970714.261   6809093.065
10 0 59351  27342.000000  0     839025.457    604452.739   6799793.847
10 0 59351  27462.000000  0    1662079.468    213054.711   6671028.554
10 0 59351  27582.000000  0    2449130.465   -196151.256   6425043.144
10 0 59351  27702.000000  0    3186193.116   -615272.246   6066132.440
10 0 59351  27822.000000  0    3860285.181  -1036001.692   5600570.006
10 0 59351  27942.000000  0    4459660.088  -1449782.778   5036504.081
10 0 59351  28062.000000  0    4974016.806  -1847981.458   4383820.986
10 0 59351  28182.000000  0    5394685.092  -2222065.188   3653977.498
10 0 59351  28302.000000  0    5714781.026  -2563784.837   2859801.963
10 0 59351  28422.000000  0    5929326.951  -2865355.037   2015267.853
10 0 59351  28542.000000  0    6035334.729  -3119628.176   1135245.574
10 0 59351  28662.000000  0    6031850.688  -3320258.942    235234.656
10 0 59351  28782.000000  0    5919957.992  -3461853.331   -668917.282
10 0 59351  28902.000000  0    5702738.936  -3540099.639  -1561303.090
10 0 59351  29022.000000  0    5385194.773  -3551876.144  -2426244.890
10 0 59351  29142.000000  0    4974128.965  -3495334.889  -3248575.451
10 0 59351  29262.000000  0    4477995.860  -3369959.068  -4013908.120
10 0 59351  29382.000000  0    3906719.113  -3176593.245  -4708888.604
10 0 59351  29502.000000  0    3271484.636  -2917445.110  -5321424.539
10 0 59351  29622.000000  0    2584514.522  -2596059.848  -5840887.527
10 0 59351  29742.000000  0    1858828.622  -2217270.154  -6258287.067
10 0 59351  29862.000000  0    1107996.550  -1787121.343  -6566416.958
10 0 59351  29982.000000  0     345883.920  -1312771.719  -6759969.116
10 0 59351  30102.000000  0    -413600.335   -802373.085  -6835614.771
10 0 59351  30222.000000  0   -1156752.093   -264932.586  -6792054.670
10 0 59351  30342.000000  0   -1870313.618    289842.644  -6630038.835
10 0 59351  30462.000000  0   -2541704.619    851716.390  -6352354.196
10 0 59351  30582.000000  0   -3159239.094   1410107.120  -5963781.910
10 0 59351  30702.000000  0   -3712326.546   1954282.425  -5471024.574
10 0 59351  30822.000000  0   -4191656.024   2473561.961  -4882602.586
10 0 59351  30942.000000  0   -4589358.007   2957525.942  -4208717.480
10 0 59351  31062.000000  0   -4899139.853   3396223.732  -3461084.744
10 0 59351  31182.000000  0   -5116393.513   3780379.619  -2652739.341
10 0 59351  31302.000000  0   -5238271.905   4101591.155  -1797813.157
10 0 59351  31422.000000  0   -5263731.750   4352514.287   -911289.554
10 0 59351  31542.000000  0   -5193541.367   4527031.185     -8737.983
10 0 59351  31662.000000  0   -5030251.706   4620396.326    893965.735
10 0 59351  31782.000000  0   -4778130.412   4629354.879   1780928.054
10 0 59351  31902.000000  0   -4443060.559   4552230.846   2636526.914
10 0 59351  32022.000000  0   -4032406.562   4388983.648   3445695.112
10 0 59351  32142.000000  0   -3554851.623   4141231.074   4194191.944
10 0 59351  32262.000000  0   -3020211.597   3812238.308   4868857.507
10 0 59351  32382.000000  0   -2439229.236   3406873.733   5457845.628
10 0 59351  32502.000000  0   -1823353.462   2931532.594   5950830.018
10 0 59351  32622.000000  0   -1184509.400   2394030.823   6339180.868
10 0 59351  32742.000000  0    -534864.559   1803471.097   6616108.678
10 0 59351  32862.000000  0     113402.366   1170085.837   6776776.370
10 0 59351  32982.000000  0     748329.741    505058.025   6818379.020
10 0 59351  33102.000000  0    1358392.761   -179676.026   6740189.103
10 0 59351  33222.000000  0    1932711.538   -871639.996   6543569.212
10 0 59351  33342.000000  0    2461244.731  -1558044.369   6231950.087
10 0 59351  33462.000000  0    2934966.237  -2226022.041   5810775.613
10 0 59351  33582.000000  0    3346022.188  -2862870.538   5287413.081
10 0 59351  33702.000000  0    3687864.485  -3456295.433   4671030.395
10 0 59351  33822.000000  0    3955359.400  -3994651.309   3972441.009
10 0 59351  33942.000000  0    4144868.597  -4467175.221   3203917.624
10 0 59351  34062.000000  0    4254300.148  -4864207.453   2378977.718
10 0 59351  34182.000000  0    4283128.795  -5177394.054   1512143.600
10 0 59351  34302.000000  0    4232383.800  -5399865.685    618681.594
10 0 59351  34422.000000  0    4104604.332  -5526387.695   -285673.914
10 0 59351  34542.000000  0    3903765.385  -5553479.174  -1185005.130
10 0 59351  34662.000000  0    3635173.446  -5479496.962  -2063500.868
10 0 59351  34782.000000  0    3305335.773  -5304681.232  -2905741.736
10 0 59351  34902.000000  0    2921807.668  -5031163.534  -3696976.537
10 0 59351  35022.000000  0    2493020.139  -4662936.612  -4423382.847
10 0 59351  35142.000000  0    2028093.534  -4205787.871  -5072306.496
10 0 59351  35262.000000  0    1536643.161  -3667198.260  -5632475.587
10 0 59351  35382.000000  0    1028581.344  -3056211.350  -6094186.644
10 0 59351  35502.000000  0     513918.711  -2383275.749  -6449462.237
10 0 59351  35622.000000  0       2569.048  -1660062.496  -6692177.976
10 0 59351  35742.000000  0    -495837.690   -899261.459  -6818157.549
10 0 59351  35862.000000  0    -972131.510   -114360.713  -6825236.595
10 0 59351  35982.000000  0   -1417766.879    680587.647  -6713295.006
10 0 59351  36102.000000  0   -1824972.557   1471212.443  -6484258.355
10 0 59351  36222.000000  0   -2186883.856   2243076.807  -6142068.164
10 0 59351  36342.000000  0   -2497657.415   2981935.944  -5692622.496
10 0 59351  36462.000000  0   -2752566.126   3673997.582  -5143684.670
10 0 59351  36582.000000  0   -2948073.022   4306179.939  -4504761.134
10 0 59351  36702.000000  0   -3081882.539   4866363.012  -3786946.981
10 0 59351  36822.000000  0   -3152966.376   5343626.135  -3002741.086
10 0 59351  36942.000000  0   -3161564.282   5728467.558  -2165836.040
10 0 59351  37062.000000  0   -3109160.276   6013003.633  -1290882.802
10 0 59351  37182.000000  0   -2998431.604   6191138.873   -393232.375
10 0 59351  37302.000000  0   -2833174.108   6258701.951    511336.488
10 0 59351  37422.000000  0   -2618205.492   6213547.826   1406902.650
10 0 59351  37542.000000  0   -2359244.071   6055616.228   2277694.547
10 0 59351  37662.000000  0   -2062769.341   5786946.032   3108376.945
10 0 59351  37782.000000  0   -1735869.248   5411648.070   3884327.519
10 0 59351  37902.000000  0   -1386077.629   4935837.240   4591898.852
10 0 59351  38022.000000  0   -1021205.019   4367525.033   5218661.010
10 0 59351  38142.000000  0    -649166.364   3716475.377   5753618.628
10 0 59351  38262.000000  0    -277812.512   2994028.583   6187400.230
10 0 59351  38382.000000  0      85233.148   2212895.905   6512416.844
10 0 59351  38502.000000  0     432728.919   1386931.436   6722988.567
10 0 59351  38622.000000  0     757957.693    530882.967   6815438.316
10 0 59351  38742.000000  0    1054855.262   -339871.533   6788150.967
10 0 59351  38862.000000  0    1318122.485  -1209599.028   6641600.933
10 0 59351  38982.000000  0    1543319.848  -2062495.316   6378344.760
10 0 59351  39102.000000  0    1726942.692  -2882972.060   6002980.026
10 0 59351  39222.000000  0    1866476.032  -3655943.567   5522069.861
10 0 59351  39342.000000  0    1960427.745  -4367107.269   4944033.159
10 0 59351  39462.000000  0    2008340.290  -5003212.169   4279002.946
10 0 59351  39582.000000  0    2010781.553  -5552313.703   3538654.698
10 0 59351  39702.000000  0    1969312.502  -6004007.620   2736002.611
10 0 59351  39822.000000  0    1886432.291  -6349635.322   1885169.868
10 0 59351  39942.000000  0    1765504.573  -6582457.391   1001137.555
10 0 59351  40062.000000  0    1610664.451  -6697791.879     99475.597
10 0 59351  40182.000000  0    1426708.471  -6693113.429   -803939.142
10 0 59351  40302.000000  0    1218969.882  -6568107.717  -1693214.269
10 0 59351  40422.000000  0     993182.612  -6324678.012  -2552729.733
10 0 59351  40542.000000  0     755339.072  -5966908.465  -3367418.146
10 0 59351  40662.000000  0     511546.502  -5500984.840  -4123032.014
10 0 59351  40782.000000  0     267882.450  -4935074.998  -4806392.633
10 0 59351  40902.000000  0      30254.278  -4279173.018  -5405615.073
10 0 59351  41022.000000  0    -195733.862  -3544911.889  -5910307.360
10 0 59351  41142.000000  0    -404903.952  -2745348.361  -6311740.563
10 0 59351  41262.000000  0    -592614.541  -1894725.610  -6602988.391
10 0 59351  41382.000000  0    -754857.029  -1008218.387  -6779035.378
10 0 59351  41502.000000  0    -888336.159   -101664.926  -6836854.708
10 0 59351  41622.000000  0    -990533.437    808711.298  -6775453.726
10 0 59351  41742.000000  0   -1059753.080   1706584.224  -6595888.511
10 0 59351  41862.000000  0   -1095149.734   2575810.522  -6301247.465
10 0 59351  41982.000000  0   -1096737.422   3400713.514  -5896605.289
10 0 59351  42102.000000  0   -1065380.113   4166363.639  -5388945.012
10 0 59351  42222.000000  0   -1002763.203   4858848.890  -4787048.574
10 0 59351  42342.000000  0    -911347.130   5465532.618  -4101356.344
99
